; Relief Carving Toolpath - Terrain Surface
; Dome + bump + channel, parallel zigzag scan
G21 ; Metric
G90 ; Absolute
G17 ; XY plane

G0 Z10 ; Safe height
M3 S12000 ; Spindle on

G0 X0.0 Y0.0 Z10
G1 Z-0.01 F200
G1 X2.0 Y0.0 Z-0.01 F800
G1 X4.0 Y0.0 Z-0.01 F800
G1 X6.0 Y0.0 Z-0.01 F800
G1 X8.0 Y0.0 Z-0.02 F800
G1 X10.0 Y0.0 Z-0.03 F800
G1 X12.0 Y0.0 Z-0.04 F800
G1 X14.0 Y0.0 Z-0.04 F800
G1 X16.0 Y0.0 Z-0.05 F800
G1 X18.0 Y0.0 Z-0.07 F800
G1 X20.0 Y0.0 Z-0.08 F800
G1 X22.0 Y0.0 Z-0.09 F800
G1 X24.0 Y0.0 Z-0.10 F800
G1 X26.0 Y0.0 Z-0.10 F800
G1 X28.0 Y0.0 Z-0.11 F800
G1 X30.0 Y0.0 Z-0.12 F800
G1 X32.0 Y0.0 Z-0.12 F800
G1 X34.0 Y0.0 Z-0.13 F800
G1 X36.0 Y0.0 Z-0.13 F800
G1 X38.0 Y0.0 Z-0.14 F800
G1 X40.0 Y0.0 Z-0.14 F800
G1 X42.0 Y0.0 Z-0.14 F800
G1 X44.0 Y0.0 Z-0.15 F800
G1 X46.0 Y0.0 Z-0.15 F800
G1 X48.0 Y0.0 Z-0.15 F800
G1 X50.0 Y0.0 Z-0.15 F800
G1 X52.0 Y0.0 Z-0.15 F800
G1 X54.0 Y0.0 Z-0.14 F800
G1 X56.0 Y0.0 Z-0.12 F800
G1 X58.0 Y0.0 Z-0.09 F800
G1 X60.0 Y0.0 Z-0.04 F800
G1 X62.0 Y0.0 Z0.07 F800
G1 X64.0 Y0.0 Z0.23 F800
G1 X66.0 Y0.0 Z0.48 F800
G1 X68.0 Y0.0 Z0.81 F800
G1 X70.0 Y0.0 Z1.22 F800
G1 X72.0 Y0.0 Z1.66 F800
G1 X74.0 Y0.0 Z2.06 F800
G1 X76.0 Y0.0 Z2.35 F800
G1 X78.0 Y0.0 Z2.46 F800
G1 X80.0 Y0.0 Z2.36 F800
G1 X82.0 Y0.0 Z2.09 F800
G1 X84.0 Y0.0 Z1.71 F800
G1 X86.0 Y0.0 Z1.28 F800
G1 X88.0 Y0.0 Z0.89 F800
G1 X90.0 Y0.0 Z0.56 F800
G1 X92.0 Y0.0 Z0.33 F800
G1 X94.0 Y0.0 Z0.18 F800
G1 X96.0 Y0.0 Z0.09 F800
G1 X98.0 Y0.0 Z0.04 F800
G1 X100.0 Y0.0 Z0.01 F800
G0 Z10 ; Retract
G0 X100.0 Y4.0 Z10
G1 Z0.01 F200
G1 X98.0 Y4.0 Z0.03 F800
G1 X96.0 Y4.0 Z0.08 F800
G1 X94.0 Y4.0 Z0.17 F800
G1 X92.0 Y4.0 Z0.32 F800
G1 X90.0 Y4.0 Z0.55 F800
G1 X88.0 Y4.0 Z0.87 F800
G1 X86.0 Y4.0 Z1.26 F800
G1 X84.0 Y4.0 Z1.69 F800
G1 X82.0 Y4.0 Z2.07 F800
G1 X80.0 Y4.0 Z2.33 F800
G1 X78.0 Y4.0 Z2.42 F800
G1 X76.0 Y4.0 Z2.31 F800
G1 X74.0 Y4.0 Z2.01 F800
G1 X72.0 Y4.0 Z1.60 F800
G1 X70.0 Y4.0 Z1.16 F800
G1 X68.0 Y4.0 Z0.74 F800
G1 X66.0 Y4.0 Z0.40 F800
G1 X64.0 Y4.0 Z0.14 F800
G1 X62.0 Y4.0 Z-0.03 F800
G1 X60.0 Y4.0 Z-0.14 F800
G1 X58.0 Y4.0 Z-0.20 F800
G1 X56.0 Y4.0 Z-0.24 F800
G1 X54.0 Y4.0 Z-0.26 F800
G1 X52.0 Y4.0 Z-0.27 F800
G1 X50.0 Y4.0 Z-0.27 F800
G1 X48.0 Y4.0 Z-0.28 F800
G1 X46.0 Y4.0 Z-0.28 F800
G1 X44.0 Y4.0 Z-0.28 F800
G1 X42.0 Y4.0 Z-0.27 F800
G1 X40.0 Y4.0 Z-0.27 F800
G1 X38.0 Y4.0 Z-0.27 F800
G1 X36.0 Y4.0 Z-0.27 F800
G1 X34.0 Y4.0 Z-0.27 F800
G1 X32.0 Y4.0 Z-0.27 F800
G1 X30.0 Y4.0 Z-0.26 F800
G1 X28.0 Y4.0 Z-0.26 F800
G1 X26.0 Y4.0 Z-0.25 F800
G1 X24.0 Y4.0 Z-0.23 F800
G1 X22.0 Y4.0 Z-0.21 F800
G1 X20.0 Y4.0 Z-0.19 F800
G1 X18.0 Y4.0 Z-0.16 F800
G1 X16.0 Y4.0 Z-0.14 F800
G1 X14.0 Y4.0 Z-0.11 F800
G1 X12.0 Y4.0 Z-0.09 F800
G1 X10.0 Y4.0 Z-0.07 F800
G1 X8.0 Y4.0 Z-0.05 F800
G1 X6.0 Y4.0 Z-0.04 F800
G1 X4.0 Y4.0 Z-0.03 F800
G1 X2.0 Y4.0 Z-0.02 F800
G1 X0.0 Y4.0 Z-0.01 F800
G0 Z10 ; Retract
G0 X0.0 Y8.0 Z10
G1 Z-0.03 F200
G1 X2.0 Y8.0 Z-0.04 F800
G1 X4.0 Y8.0 Z-0.06 F800
G1 X6.0 Y8.0 Z-0.08 F800
G1 X8.0 Y8.0 Z-0.11 F800
G1 X10.0 Y8.0 Z-0.15 F800
G1 X12.0 Y8.0 Z-0.20 F800
G1 X14.0 Y8.0 Z-0.26 F800
G1 X16.0 Y8.0 Z-0.31 F800
G1 X18.0 Y8.0 Z-0.37 F800
G1 X20.0 Y8.0 Z-0.43 F800
G1 X22.0 Y8.0 Z-0.48 F800
G1 X24.0 Y8.0 Z-0.52 F800
G1 X26.0 Y8.0 Z-0.54 F800
G1 X28.0 Y8.0 Z-0.56 F800
G1 X30.0 Y8.0 Z-0.56 F800
G1 X32.0 Y8.0 Z-0.56 F800
G1 X34.0 Y8.0 Z-0.55 F800
G1 X36.0 Y8.0 Z-0.53 F800
G1 X38.0 Y8.0 Z-0.52 F800
G1 X40.0 Y8.0 Z-0.51 F800
G1 X42.0 Y8.0 Z-0.50 F800
G1 X44.0 Y8.0 Z-0.49 F800
G1 X46.0 Y8.0 Z-0.49 F800
G1 X48.0 Y8.0 Z-0.48 F800
G1 X50.0 Y8.0 Z-0.47 F800
G1 X52.0 Y8.0 Z-0.46 F800
G1 X54.0 Y8.0 Z-0.45 F800
G1 X56.0 Y8.0 Z-0.42 F800
G1 X58.0 Y8.0 Z-0.38 F800
G1 X60.0 Y8.0 Z-0.30 F800
G1 X62.0 Y8.0 Z-0.19 F800
G1 X64.0 Y8.0 Z-0.00 F800
G1 X66.0 Y8.0 Z0.27 F800
G1 X68.0 Y8.0 Z0.62 F800
G1 X70.0 Y8.0 Z1.05 F800
G1 X72.0 Y8.0 Z1.51 F800
G1 X74.0 Y8.0 Z1.93 F800
G1 X76.0 Y8.0 Z2.24 F800
G1 X78.0 Y8.0 Z2.36 F800
G1 X80.0 Y8.0 Z2.29 F800
G1 X82.0 Y8.0 Z2.03 F800
G1 X84.0 Y8.0 Z1.65 F800
G1 X86.0 Y8.0 Z1.24 F800
G1 X88.0 Y8.0 Z0.85 F800
G1 X90.0 Y8.0 Z0.54 F800
G1 X92.0 Y8.0 Z0.31 F800
G1 X94.0 Y8.0 Z0.16 F800
G1 X96.0 Y8.0 Z0.07 F800
G1 X98.0 Y8.0 Z0.03 F800
G1 X100.0 Y8.0 Z0.01 F800
G0 Z10 ; Retract
G0 X100.0 Y12.0 Z10
G1 Z0.00 F200
G1 X98.0 Y12.0 Z0.02 F800
G1 X96.0 Y12.0 Z0.06 F800
G1 X94.0 Y12.0 Z0.15 F800
G1 X92.0 Y12.0 Z0.29 F800
G1 X90.0 Y12.0 Z0.51 F800
G1 X88.0 Y12.0 Z0.82 F800
G1 X86.0 Y12.0 Z1.20 F800
G1 X84.0 Y12.0 Z1.60 F800
G1 X82.0 Y12.0 Z1.97 F800
G1 X80.0 Y12.0 Z2.21 F800
G1 X78.0 Y12.0 Z2.28 F800
G1 X76.0 Y12.0 Z2.13 F800
G1 X74.0 Y12.0 Z1.81 F800
G1 X72.0 Y12.0 Z1.37 F800
G1 X70.0 Y12.0 Z0.89 F800
G1 X68.0 Y12.0 Z0.44 F800
G1 X66.0 Y12.0 Z0.07 F800
G1 X64.0 Y12.0 Z-0.22 F800
G1 X62.0 Y12.0 Z-0.42 F800
G1 X60.0 Y12.0 Z-0.56 F800
G1 X58.0 Y12.0 Z-0.64 F800
G1 X56.0 Y12.0 Z-0.70 F800
G1 X54.0 Y12.0 Z-0.74 F800
G1 X52.0 Y12.0 Z-0.77 F800
G1 X50.0 Y12.0 Z-0.79 F800
G1 X48.0 Y12.0 Z-0.81 F800
G1 X46.0 Y12.0 Z-0.82 F800
G1 X44.0 Y12.0 Z-0.84 F800
G1 X42.0 Y12.0 Z-0.87 F800
G1 X40.0 Y12.0 Z-0.90 F800
G1 X38.0 Y12.0 Z-0.94 F800
G1 X36.0 Y12.0 Z-0.99 F800
G1 X34.0 Y12.0 Z-1.04 F800
G1 X32.0 Y12.0 Z-1.08 F800
G1 X30.0 Y12.0 Z-1.11 F800
G1 X28.0 Y12.0 Z-1.11 F800
G1 X26.0 Y12.0 Z-1.10 F800
G1 X24.0 Y12.0 Z-1.05 F800
G1 X22.0 Y12.0 Z-0.98 F800
G1 X20.0 Y12.0 Z-0.89 F800
G1 X18.0 Y12.0 Z-0.77 F800
G1 X16.0 Y12.0 Z-0.65 F800
G1 X14.0 Y12.0 Z-0.53 F800
G1 X12.0 Y12.0 Z-0.42 F800
G1 X10.0 Y12.0 Z-0.32 F800
G1 X8.0 Y12.0 Z-0.24 F800
G1 X6.0 Y12.0 Z-0.17 F800
G1 X4.0 Y12.0 Z-0.12 F800
G1 X2.0 Y12.0 Z-0.08 F800
G1 X0.0 Y12.0 Z-0.05 F800
G0 Z10 ; Retract
G0 X0.0 Y16.0 Z10
G1 Z-0.09 F200
G1 X2.0 Y16.0 Z-0.14 F800
G1 X4.0 Y16.0 Z-0.21 F800
G1 X6.0 Y16.0 Z-0.31 F800
G1 X8.0 Y16.0 Z-0.43 F800
G1 X10.0 Y16.0 Z-0.59 F800
G1 X12.0 Y16.0 Z-0.77 F800
G1 X14.0 Y16.0 Z-0.98 F800
G1 X16.0 Y16.0 Z-1.20 F800
G1 X18.0 Y16.0 Z-1.42 F800
G1 X20.0 Y16.0 Z-1.62 F800
G1 X22.0 Y16.0 Z-1.79 F800
G1 X24.0 Y16.0 Z-1.91 F800
G1 X26.0 Y16.0 Z-1.98 F800
G1 X28.0 Y16.0 Z-1.99 F800
G1 X30.0 Y16.0 Z-1.96 F800
G1 X32.0 Y16.0 Z-1.89 F800
G1 X34.0 Y16.0 Z-1.79 F800
G1 X36.0 Y16.0 Z-1.69 F800
G1 X38.0 Y16.0 Z-1.59 F800
G1 X40.0 Y16.0 Z-1.50 F800
G1 X42.0 Y16.0 Z-1.42 F800
G1 X44.0 Y16.0 Z-1.36 F800
G1 X46.0 Y16.0 Z-1.31 F800
G1 X48.0 Y16.0 Z-1.27 F800
G1 X50.0 Y16.0 Z-1.24 F800
G1 X52.0 Y16.0 Z-1.21 F800
G1 X54.0 Y16.0 Z-1.16 F800
G1 X56.0 Y16.0 Z-1.11 F800
G1 X58.0 Y16.0 Z-1.03 F800
G1 X60.0 Y16.0 Z-0.92 F800
G1 X62.0 Y16.0 Z-0.76 F800
G1 X64.0 Y16.0 Z-0.53 F800
G1 X66.0 Y16.0 Z-0.22 F800
G1 X68.0 Y16.0 Z0.19 F800
G1 X70.0 Y16.0 Z0.67 F800
G1 X72.0 Y16.0 Z1.17 F800
G1 X74.0 Y16.0 Z1.64 F800
G1 X76.0 Y16.0 Z1.99 F800
G1 X78.0 Y16.0 Z2.15 F800
G1 X80.0 Y16.0 Z2.11 F800
G1 X82.0 Y16.0 Z1.88 F800
G1 X84.0 Y16.0 Z1.53 F800
G1 X86.0 Y16.0 Z1.14 F800
G1 X88.0 Y16.0 Z0.77 F800
G1 X90.0 Y16.0 Z0.48 F800
G1 X92.0 Y16.0 Z0.26 F800
G1 X94.0 Y16.0 Z0.12 F800
G1 X96.0 Y16.0 Z0.05 F800
G1 X98.0 Y16.0 Z0.01 F800
G1 X100.0 Y16.0 Z-0.01 F800
G0 Z10 ; Retract
G0 X100.0 Y20.0 Z10
G1 Z-0.02 F200
G1 X98.0 Y20.0 Z-0.01 F800
G1 X96.0 Y20.0 Z0.03 F800
G1 X94.0 Y20.0 Z0.10 F800
G1 X92.0 Y20.0 Z0.22 F800
G1 X90.0 Y20.0 Z0.43 F800
G1 X88.0 Y20.0 Z0.71 F800
G1 X86.0 Y20.0 Z1.06 F800
G1 X84.0 Y20.0 Z1.44 F800
G1 X82.0 Y20.0 Z1.76 F800
G1 X80.0 Y20.0 Z1.96 F800
G1 X78.0 Y20.0 Z1.98 F800
G1 X76.0 Y20.0 Z1.79 F800
G1 X74.0 Y20.0 Z1.41 F800
G1 X72.0 Y20.0 Z0.90 F800
G1 X70.0 Y20.0 Z0.36 F800
G1 X68.0 Y20.0 Z-0.16 F800
G1 X66.0 Y20.0 Z-0.60 F800
G1 X64.0 Y20.0 Z-0.95 F800
G1 X62.0 Y20.0 Z-1.22 F800
G1 X60.0 Y20.0 Z-1.41 F800
G1 X58.0 Y20.0 Z-1.55 F800
G1 X56.0 Y20.0 Z-1.65 F800
G1 X54.0 Y20.0 Z-1.73 F800
G1 X52.0 Y20.0 Z-1.80 F800
G1 X50.0 Y20.0 Z-1.85 F800
G1 X48.0 Y20.0 Z-1.91 F800
G1 X46.0 Y20.0 Z-1.97 F800
G1 X44.0 Y20.0 Z-2.05 F800
G1 X42.0 Y20.0 Z-2.15 F800
G1 X40.0 Y20.0 Z-2.28 F800
G1 X38.0 Y20.0 Z-2.44 F800
G1 X36.0 Y20.0 Z-2.61 F800
G1 X34.0 Y20.0 Z-2.79 F800
G1 X32.0 Y20.0 Z-2.96 F800
G1 X30.0 Y20.0 Z-3.08 F800
G1 X28.0 Y20.0 Z-3.15 F800
G1 X26.0 Y20.0 Z-3.13 F800
G1 X24.0 Y20.0 Z-3.03 F800
G1 X22.0 Y20.0 Z-2.84 F800
G1 X20.0 Y20.0 Z-2.58 F800
G1 X18.0 Y20.0 Z-2.26 F800
G1 X16.0 Y20.0 Z-1.91 F800
G1 X14.0 Y20.0 Z-1.56 F800
G1 X12.0 Y20.0 Z-1.23 F800
G1 X10.0 Y20.0 Z-0.94 F800
G1 X8.0 Y20.0 Z-0.69 F800
G1 X6.0 Y20.0 Z-0.49 F800
G1 X4.0 Y20.0 Z-0.33 F800
G1 X2.0 Y20.0 Z-0.22 F800
G1 X0.0 Y20.0 Z-0.14 F800
G0 Z10 ; Retract
G0 X0.0 Y24.0 Z10
G1 Z-0.20 F200
G1 X2.0 Y24.0 Z-0.31 F800
G1 X4.0 Y24.0 Z-0.46 F800
G1 X6.0 Y24.0 Z-0.67 F800
G1 X8.0 Y24.0 Z-0.95 F800
G1 X10.0 Y24.0 Z-1.29 F800
G1 X12.0 Y24.0 Z-1.70 F800
G1 X14.0 Y24.0 Z-2.16 F800
G1 X16.0 Y24.0 Z-2.64 F800
G1 X18.0 Y24.0 Z-3.12 F800
G1 X20.0 Y24.0 Z-3.56 F800
G1 X22.0 Y24.0 Z-3.93 F800
G1 X24.0 Y24.0 Z-4.19 F800
G1 X26.0 Y24.0 Z-4.34 F800
G1 X28.0 Y24.0 Z-4.36 F800
G1 X30.0 Y24.0 Z-4.28 F800
G1 X32.0 Y24.0 Z-4.11 F800
G1 X34.0 Y24.0 Z-3.89 F800
G1 X36.0 Y24.0 Z-3.65 F800
G1 X38.0 Y24.0 Z-3.41 F800
G1 X40.0 Y24.0 Z-3.20 F800
G1 X42.0 Y24.0 Z-3.02 F800
G1 X44.0 Y24.0 Z-2.88 F800
G1 X46.0 Y24.0 Z-2.77 F800
G1 X48.0 Y24.0 Z-2.69 F800
G1 X50.0 Y24.0 Z-2.61 F800
G1 X52.0 Y24.0 Z-2.54 F800
G1 X54.0 Y24.0 Z-2.45 F800
G1 X56.0 Y24.0 Z-2.34 F800
G1 X58.0 Y24.0 Z-2.21 F800
G1 X60.0 Y24.0 Z-2.03 F800
G1 X62.0 Y24.0 Z-1.79 F800
G1 X64.0 Y24.0 Z-1.49 F800
G1 X66.0 Y24.0 Z-1.09 F800
G1 X68.0 Y24.0 Z-0.60 F800
G1 X70.0 Y24.0 Z-0.03 F800
G1 X72.0 Y24.0 Z0.56 F800
G1 X74.0 Y24.0 Z1.11 F800
G1 X76.0 Y24.0 Z1.53 F800
G1 X78.0 Y24.0 Z1.76 F800
G1 X80.0 Y24.0 Z1.79 F800
G1 X82.0 Y24.0 Z1.62 F800
G1 X84.0 Y24.0 Z1.32 F800
G1 X86.0 Y24.0 Z0.97 F800
G1 X88.0 Y24.0 Z0.64 F800
G1 X90.0 Y24.0 Z0.37 F800
G1 X92.0 Y24.0 Z0.18 F800
G1 X94.0 Y24.0 Z0.06 F800
G1 X96.0 Y24.0 Z-0.00 F800
G1 X98.0 Y24.0 Z-0.03 F800
G1 X100.0 Y24.0 Z-0.03 F800
G0 Z10 ; Retract
G0 X100.0 Y28.0 Z10
G1 Z-0.05 F200
G1 X98.0 Y28.0 Z-0.05 F800
G1 X96.0 Y28.0 Z-0.03 F800
G1 X94.0 Y28.0 Z0.02 F800
G1 X92.0 Y28.0 Z0.12 F800
G1 X90.0 Y28.0 Z0.29 F800
G1 X88.0 Y28.0 Z0.54 F800
G1 X86.0 Y28.0 Z0.85 F800
G1 X84.0 Y28.0 Z1.17 F800
G1 X82.0 Y28.0 Z1.44 F800
G1 X80.0 Y28.0 Z1.57 F800
G1 X78.0 Y28.0 Z1.51 F800
G1 X76.0 Y28.0 Z1.23 F800
G1 X74.0 Y28.0 Z0.76 F800
G1 X72.0 Y28.0 Z0.16 F800
G1 X70.0 Y28.0 Z-0.49 F800
G1 X68.0 Y28.0 Z-1.11 F800
G1 X66.0 Y28.0 Z-1.66 F800
G1 X64.0 Y28.0 Z-2.11 F800
G1 X62.0 Y28.0 Z-2.48 F800
G1 X60.0 Y28.0 Z-2.76 F800
G1 X58.0 Y28.0 Z-2.98 F800
G1 X56.0 Y28.0 Z-3.15 F800
G1 X54.0 Y28.0 Z-3.29 F800
G1 X52.0 Y28.0 Z-3.40 F800
G1 X50.0 Y28.0 Z-3.49 F800
G1 X48.0 Y28.0 Z-3.57 F800
G1 X46.0 Y28.0 Z-3.67 F800
G1 X44.0 Y28.0 Z-3.78 F800
G1 X42.0 Y28.0 Z-3.93 F800
G1 X40.0 Y28.0 Z-4.12 F800
G1 X38.0 Y28.0 Z-4.34 F800
G1 X36.0 Y28.0 Z-4.59 F800
G1 X34.0 Y28.0 Z-4.85 F800
G1 X32.0 Y28.0 Z-5.08 F800
G1 X30.0 Y28.0 Z-5.25 F800
G1 X28.0 Y28.0 Z-5.32 F800
G1 X26.0 Y28.0 Z-5.26 F800
G1 X24.0 Y28.0 Z-5.07 F800
G1 X22.0 Y28.0 Z-4.74 F800
G1 X20.0 Y28.0 Z-4.29 F800
G1 X18.0 Y28.0 Z-3.75 F800
G1 X16.0 Y28.0 Z-3.17 F800
G1 X14.0 Y28.0 Z-2.59 F800
G1 X12.0 Y28.0 Z-2.04 F800
G1 X10.0 Y28.0 Z-1.55 F800
G1 X8.0 Y28.0 Z-1.14 F800
G1 X6.0 Y28.0 Z-0.81 F800
G1 X4.0 Y28.0 Z-0.56 F800
G1 X2.0 Y28.0 Z-0.37 F800
G1 X0.0 Y28.0 Z-0.24 F800
G0 Z10 ; Retract
G0 X0.0 Y32.0 Z10
G1 Z-0.26 F200
G1 X2.0 Y32.0 Z-0.40 F800
G1 X4.0 Y32.0 Z-0.59 F800
G1 X6.0 Y32.0 Z-0.86 F800
G1 X8.0 Y32.0 Z-1.20 F800
G1 X10.0 Y32.0 Z-1.63 F800
G1 X12.0 Y32.0 Z-2.14 F800
G1 X14.0 Y32.0 Z-2.72 F800
G1 X16.0 Y32.0 Z-3.33 F800
G1 X18.0 Y32.0 Z-3.94 F800
G1 X20.0 Y32.0 Z-4.52 F800
G1 X22.0 Y32.0 Z-5.01 F800
G1 X24.0 Y32.0 Z-5.40 F800
G1 X26.0 Y32.0 Z-5.65 F800
G1 X28.0 Y32.0 Z-5.76 F800
G1 X30.0 Y32.0 Z-5.75 F800
G1 X32.0 Y32.0 Z-5.64 F800
G1 X34.0 Y32.0 Z-5.48 F800
G1 X36.0 Y32.0 Z-5.28 F800
G1 X38.0 Y32.0 Z-5.08 F800
G1 X40.0 Y32.0 Z-4.91 F800
G1 X42.0 Y32.0 Z-4.77 F800
G1 X44.0 Y32.0 Z-4.66 F800
G1 X46.0 Y32.0 Z-4.57 F800
G1 X48.0 Y32.0 Z-4.50 F800
G1 X50.0 Y32.0 Z-4.42 F800
G1 X52.0 Y32.0 Z-4.32 F800
G1 X54.0 Y32.0 Z-4.19 F800
G1 X56.0 Y32.0 Z-4.03 F800
G1 X58.0 Y32.0 Z-3.82 F800
G1 X60.0 Y32.0 Z-3.56 F800
G1 X62.0 Y32.0 Z-3.22 F800
G1 X64.0 Y32.0 Z-2.80 F800
G1 X66.0 Y32.0 Z-2.29 F800
G1 X68.0 Y32.0 Z-1.67 F800
G1 X70.0 Y32.0 Z-0.99 F800
G1 X72.0 Y32.0 Z-0.28 F800
G1 X74.0 Y32.0 Z0.38 F800
G1 X76.0 Y32.0 Z0.90 F800
G1 X78.0 Y32.0 Z1.23 F800
G1 X80.0 Y32.0 Z1.34 F800
G1 X82.0 Y32.0 Z1.25 F800
G1 X84.0 Y32.0 Z1.02 F800
G1 X86.0 Y32.0 Z0.73 F800
G1 X88.0 Y32.0 Z0.44 F800
G1 X90.0 Y32.0 Z0.22 F800
G1 X92.0 Y32.0 Z0.06 F800
G1 X94.0 Y32.0 Z-0.03 F800
G1 X96.0 Y32.0 Z-0.07 F800
G1 X98.0 Y32.0 Z-0.08 F800
G1 X100.0 Y32.0 Z-0.07 F800
G0 Z10 ; Retract
G0 X100.0 Y36.0 Z10
G1 Z-0.09 F200
G1 X98.0 Y36.0 Z-0.11 F800
G1 X96.0 Y36.0 Z-0.11 F800
G1 X94.0 Y36.0 Z-0.08 F800
G1 X92.0 Y36.0 Z-0.00 F800
G1 X90.0 Y36.0 Z0.14 F800
G1 X88.0 Y36.0 Z0.34 F800
G1 X86.0 Y36.0 Z0.60 F800
G1 X84.0 Y36.0 Z0.86 F800
G1 X82.0 Y36.0 Z1.06 F800
G1 X80.0 Y36.0 Z1.11 F800
G1 X78.0 Y36.0 Z0.96 F800
G1 X76.0 Y36.0 Z0.58 F800
G1 X74.0 Y36.0 Z-0.00 F800
G1 X72.0 Y36.0 Z-0.72 F800
G1 X70.0 Y36.0 Z-1.49 F800
G1 X68.0 Y36.0 Z-2.24 F800
G1 X66.0 Y36.0 Z-2.91 F800
G1 X64.0 Y36.0 Z-3.49 F800
G1 X62.0 Y36.0 Z-3.96 F800
G1 X60.0 Y36.0 Z-4.35 F800
G1 X58.0 Y36.0 Z-4.66 F800
G1 X56.0 Y36.0 Z-4.90 F800
G1 X54.0 Y36.0 Z-5.09 F800
G1 X52.0 Y36.0 Z-5.23 F800
G1 X50.0 Y36.0 Z-5.32 F800
G1 X48.0 Y36.0 Z-5.38 F800
G1 X46.0 Y36.0 Z-5.42 F800
G1 X44.0 Y36.0 Z-5.44 F800
G1 X42.0 Y36.0 Z-5.47 F800
G1 X40.0 Y36.0 Z-5.52 F800
G1 X38.0 Y36.0 Z-5.58 F800
G1 X36.0 Y36.0 Z-5.65 F800
G1 X34.0 Y36.0 Z-5.71 F800
G1 X32.0 Y36.0 Z-5.75 F800
G1 X30.0 Y36.0 Z-5.74 F800
G1 X28.0 Y36.0 Z-5.65 F800
G1 X26.0 Y36.0 Z-5.45 F800
G1 X24.0 Y36.0 Z-5.15 F800
G1 X22.0 Y36.0 Z-4.74 F800
G1 X20.0 Y36.0 Z-4.24 F800
G1 X18.0 Y36.0 Z-3.68 F800
G1 X16.0 Y36.0 Z-3.10 F800
G1 X14.0 Y36.0 Z-2.52 F800
G1 X12.0 Y36.0 Z-1.99 F800
G1 X10.0 Y36.0 Z-1.52 F800
G1 X8.0 Y36.0 Z-1.13 F800
G1 X6.0 Y36.0 Z-0.81 F800
G1 X4.0 Y36.0 Z-0.57 F800
G1 X2.0 Y36.0 Z-0.39 F800
G1 X0.0 Y36.0 Z-0.26 F800
G0 Z10 ; Retract
G0 X0.0 Y40.0 Z10
G1 Z-0.23 F200
G1 X2.0 Y40.0 Z-0.34 F800
G1 X4.0 Y40.0 Z-0.50 F800
G1 X6.0 Y40.0 Z-0.70 F800
G1 X8.0 Y40.0 Z-0.97 F800
G1 X10.0 Y40.0 Z-1.30 F800
G1 X12.0 Y40.0 Z-1.69 F800
G1 X14.0 Y40.0 Z-2.14 F800
G1 X16.0 Y40.0 Z-2.63 F800
G1 X18.0 Y40.0 Z-3.13 F800
G1 X20.0 Y40.0 Z-3.64 F800
G1 X22.0 Y40.0 Z-4.11 F800
G1 X24.0 Y40.0 Z-4.53 F800
G1 X26.0 Y40.0 Z-4.88 F800
G1 X28.0 Y40.0 Z-5.16 F800
G1 X30.0 Y40.0 Z-5.38 F800
G1 X32.0 Y40.0 Z-5.54 F800
G1 X34.0 Y40.0 Z-5.66 F800
G1 X36.0 Y40.0 Z-5.76 F800
G1 X38.0 Y40.0 Z-5.85 F800
G1 X40.0 Y40.0 Z-5.93 F800
G1 X42.0 Y40.0 Z-6.01 F800
G1 X44.0 Y40.0 Z-6.07 F800
G1 X46.0 Y40.0 Z-6.12 F800
G1 X48.0 Y40.0 Z-6.13 F800
G1 X50.0 Y40.0 Z-6.10 F800
G1 X52.0 Y40.0 Z-6.02 F800
G1 X54.0 Y40.0 Z-5.88 F800
G1 X56.0 Y40.0 Z-5.68 F800
G1 X58.0 Y40.0 Z-5.40 F800
G1 X60.0 Y40.0 Z-5.05 F800
G1 X62.0 Y40.0 Z-4.62 F800
G1 X64.0 Y40.0 Z-4.10 F800
G1 X66.0 Y40.0 Z-3.47 F800
G1 X68.0 Y40.0 Z-2.74 F800
G1 X70.0 Y40.0 Z-1.93 F800
G1 X72.0 Y40.0 Z-1.11 F800
G1 X74.0 Y40.0 Z-0.34 F800
G1 X76.0 Y40.0 Z0.29 F800
G1 X78.0 Y40.0 Z0.71 F800
G1 X80.0 Y40.0 Z0.90 F800
G1 X82.0 Y40.0 Z0.89 F800
G1 X84.0 Y40.0 Z0.72 F800
G1 X86.0 Y40.0 Z0.49 F800
G1 X88.0 Y40.0 Z0.26 F800
G1 X90.0 Y40.0 Z0.07 F800
G1 X92.0 Y40.0 Z-0.06 F800
G1 X94.0 Y40.0 Z-0.12 F800
G1 X96.0 Y40.0 Z-0.14 F800
G1 X98.0 Y40.0 Z-0.13 F800
G1 X100.0 Y40.0 Z-0.11 F800
G0 Z10 ; Retract
G0 X100.0 Y44.0 Z10
G1 Z-0.12 F200
G1 X98.0 Y44.0 Z-0.15 F800
G1 X96.0 Y44.0 Z-0.16 F800
G1 X94.0 Y44.0 Z-0.15 F800
G1 X92.0 Y44.0 Z-0.10 F800
G1 X90.0 Y44.0 Z0.01 F800
G1 X88.0 Y44.0 Z0.19 F800
G1 X86.0 Y44.0 Z0.40 F800
G1 X84.0 Y44.0 Z0.62 F800
G1 X82.0 Y44.0 Z0.76 F800
G1 X80.0 Y44.0 Z0.75 F800
G1 X78.0 Y44.0 Z0.53 F800
G1 X76.0 Y44.0 Z0.07 F800
G1 X74.0 Y44.0 Z-0.60 F800
G1 X72.0 Y44.0 Z-1.41 F800
G1 X70.0 Y44.0 Z-2.27 F800
G1 X68.0 Y44.0 Z-3.12 F800
G1 X66.0 Y44.0 Z-3.89 F800
G1 X64.0 Y44.0 Z-4.56 F800
G1 X62.0 Y44.0 Z-5.12 F800
G1 X60.0 Y44.0 Z-5.59 F800
G1 X58.0 Y44.0 Z-5.96 F800
G1 X56.0 Y44.0 Z-6.26 F800
G1 X54.0 Y44.0 Z-6.48 F800
G1 X52.0 Y44.0 Z-6.62 F800
G1 X50.0 Y44.0 Z-6.69 F800
G1 X48.0 Y44.0 Z-6.69 F800
G1 X46.0 Y44.0 Z-6.63 F800
G1 X44.0 Y44.0 Z-6.51 F800
G1 X42.0 Y44.0 Z-6.35 F800
G1 X40.0 Y44.0 Z-6.16 F800
G1 X38.0 Y44.0 Z-5.95 F800
G1 X36.0 Y44.0 Z-5.71 F800
G1 X34.0 Y44.0 Z-5.46 F800
G1 X32.0 Y44.0 Z-5.19 F800
G1 X30.0 Y44.0 Z-4.90 F800
G1 X28.0 Y44.0 Z-4.57 F800
G1 X26.0 Y44.0 Z-4.22 F800
G1 X24.0 Y44.0 Z-3.83 F800
G1 X22.0 Y44.0 Z-3.41 F800
G1 X20.0 Y44.0 Z-2.98 F800
G1 X18.0 Y44.0 Z-2.54 F800
G1 X16.0 Y44.0 Z-2.11 F800
G1 X14.0 Y44.0 Z-1.72 F800
G1 X12.0 Y44.0 Z-1.36 F800
G1 X10.0 Y44.0 Z-1.05 F800
G1 X8.0 Y44.0 Z-0.79 F800
G1 X6.0 Y44.0 Z-0.58 F800
G1 X4.0 Y44.0 Z-0.42 F800
G1 X2.0 Y44.0 Z-0.30 F800
G1 X0.0 Y44.0 Z-0.21 F800
G0 Z10 ; Retract
G0 X0.0 Y48.0 Z10
G1 Z-0.18 F200
G1 X2.0 Y48.0 Z-0.25 F800
G1 X4.0 Y48.0 Z-0.35 F800
G1 X6.0 Y48.0 Z-0.48 F800
G1 X8.0 Y48.0 Z-0.64 F800
G1 X10.0 Y48.0 Z-0.85 F800
G1 X12.0 Y48.0 Z-1.09 F800
G1 X14.0 Y48.0 Z-1.37 F800
G1 X16.0 Y48.0 Z-1.70 F800
G1 X18.0 Y48.0 Z-2.05 F800
G1 X20.0 Y48.0 Z-2.43 F800
G1 X22.0 Y48.0 Z-2.83 F800
G1 X24.0 Y48.0 Z-3.24 F800
G1 X26.0 Y48.0 Z-3.65 F800
G1 X28.0 Y48.0 Z-4.05 F800
G1 X30.0 Y48.0 Z-4.45 F800
G1 X32.0 Y48.0 Z-4.84 F800
G1 X34.0 Y48.0 Z-5.21 F800
G1 X36.0 Y48.0 Z-5.57 F800
G1 X38.0 Y48.0 Z-5.91 F800
G1 X40.0 Y48.0 Z-6.22 F800
G1 X42.0 Y48.0 Z-6.49 F800
G1 X44.0 Y48.0 Z-6.71 F800
G1 X46.0 Y48.0 Z-6.87 F800
G1 X48.0 Y48.0 Z-6.97 F800
G1 X50.0 Y48.0 Z-6.99 F800
G1 X52.0 Y48.0 Z-6.93 F800
G1 X54.0 Y48.0 Z-6.79 F800
G1 X56.0 Y48.0 Z-6.57 F800
G1 X58.0 Y48.0 Z-6.26 F800
G1 X60.0 Y48.0 Z-5.87 F800
G1 X62.0 Y48.0 Z-5.39 F800
G1 X64.0 Y48.0 Z-4.80 F800
G1 X66.0 Y48.0 Z-4.11 F800
G1 X68.0 Y48.0 Z-3.32 F800
G1 X70.0 Y48.0 Z-2.45 F800
G1 X72.0 Y48.0 Z-1.56 F800
G1 X74.0 Y48.0 Z-0.74 F800
G1 X76.0 Y48.0 Z-0.05 F800
G1 X78.0 Y48.0 Z0.43 F800
G1 X80.0 Y48.0 Z0.67 F800
G1 X82.0 Y48.0 Z0.69 F800
G1 X84.0 Y48.0 Z0.56 F800
G1 X86.0 Y48.0 Z0.36 F800
G1 X88.0 Y48.0 Z0.15 F800
G1 X90.0 Y48.0 Z-0.01 F800
G1 X92.0 Y48.0 Z-0.12 F800
G1 X94.0 Y48.0 Z-0.17 F800
G1 X96.0 Y48.0 Z-0.17 F800
G1 X98.0 Y48.0 Z-0.16 F800
G1 X100.0 Y48.0 Z-0.13 F800
G0 Z10 ; Retract
G0 X100.0 Y52.0 Z10
G1 Z-0.13 F200
G1 X98.0 Y52.0 Z-0.16 F800
G1 X96.0 Y52.0 Z-0.17 F800
G1 X94.0 Y52.0 Z-0.17 F800
G1 X92.0 Y52.0 Z-0.12 F800
G1 X90.0 Y52.0 Z-0.01 F800
G1 X88.0 Y52.0 Z0.15 F800
G1 X86.0 Y52.0 Z0.36 F800
G1 X84.0 Y52.0 Z0.56 F800
G1 X82.0 Y52.0 Z0.69 F800
G1 X80.0 Y52.0 Z0.67 F800
G1 X78.0 Y52.0 Z0.43 F800
G1 X76.0 Y52.0 Z-0.05 F800
G1 X74.0 Y52.0 Z-0.74 F800
G1 X72.0 Y52.0 Z-1.56 F800
G1 X70.0 Y52.0 Z-2.45 F800
G1 X68.0 Y52.0 Z-3.32 F800
G1 X66.0 Y52.0 Z-4.11 F800
G1 X64.0 Y52.0 Z-4.80 F800
G1 X62.0 Y52.0 Z-5.39 F800
G1 X60.0 Y52.0 Z-5.87 F800
G1 X58.0 Y52.0 Z-6.26 F800
G1 X56.0 Y52.0 Z-6.57 F800
G1 X54.0 Y52.0 Z-6.79 F800
G1 X52.0 Y52.0 Z-6.92 F800
G1 X50.0 Y52.0 Z-6.97 F800
G1 X48.0 Y52.0 Z-6.94 F800
G1 X46.0 Y52.0 Z-6.83 F800
G1 X44.0 Y52.0 Z-6.64 F800
G1 X42.0 Y52.0 Z-6.39 F800
G1 X40.0 Y52.0 Z-6.08 F800
G1 X38.0 Y52.0 Z-5.72 F800
G1 X36.0 Y52.0 Z-5.34 F800
G1 X34.0 Y52.0 Z-4.92 F800
G1 X32.0 Y52.0 Z-4.50 F800
G1 X30.0 Y52.0 Z-4.07 F800
G1 X28.0 Y52.0 Z-3.64 F800
G1 X26.0 Y52.0 Z-3.21 F800
G1 X24.0 Y52.0 Z-2.80 F800
G1 X22.0 Y52.0 Z-2.41 F800
G1 X20.0 Y52.0 Z-2.05 F800
G1 X18.0 Y52.0 Z-1.71 F800
G1 X16.0 Y52.0 Z-1.41 F800
G1 X14.0 Y52.0 Z-1.14 F800
G1 X12.0 Y52.0 Z-0.90 F800
G1 X10.0 Y52.0 Z-0.70 F800
G1 X8.0 Y52.0 Z-0.54 F800
G1 X6.0 Y52.0 Z-0.41 F800
G1 X4.0 Y52.0 Z-0.30 F800
G1 X2.0 Y52.0 Z-0.22 F800
G1 X0.0 Y52.0 Z-0.16 F800
G0 Z10 ; Retract
G0 X0.0 Y56.0 Z10
G1 Z-0.15 F200
G1 X2.0 Y56.0 Z-0.20 F800
G1 X4.0 Y56.0 Z-0.27 F800
G1 X6.0 Y56.0 Z-0.36 F800
G1 X8.0 Y56.0 Z-0.47 F800
G1 X10.0 Y56.0 Z-0.60 F800
G1 X12.0 Y56.0 Z-0.77 F800
G1 X14.0 Y56.0 Z-0.97 F800
G1 X16.0 Y56.0 Z-1.20 F800
G1 X18.0 Y56.0 Z-1.47 F800
G1 X20.0 Y56.0 Z-1.77 F800
G1 X22.0 Y56.0 Z-2.11 F800
G1 X24.0 Y56.0 Z-2.47 F800
G1 X26.0 Y56.0 Z-2.86 F800
G1 X28.0 Y56.0 Z-3.27 F800
G1 X30.0 Y56.0 Z-3.69 F800
G1 X32.0 Y56.0 Z-4.12 F800
G1 X34.0 Y56.0 Z-4.55 F800
G1 X36.0 Y56.0 Z-4.97 F800
G1 X38.0 Y56.0 Z-5.36 F800
G1 X40.0 Y56.0 Z-5.72 F800
G1 X42.0 Y56.0 Z-6.03 F800
G1 X44.0 Y56.0 Z-6.29 F800
G1 X46.0 Y56.0 Z-6.48 F800
G1 X48.0 Y56.0 Z-6.59 F800
G1 X50.0 Y56.0 Z-6.63 F800
G1 X52.0 Y56.0 Z-6.58 F800
G1 X54.0 Y56.0 Z-6.46 F800
G1 X56.0 Y56.0 Z-6.25 F800
G1 X58.0 Y56.0 Z-5.96 F800
G1 X60.0 Y56.0 Z-5.58 F800
G1 X62.0 Y56.0 Z-5.12 F800
G1 X64.0 Y56.0 Z-4.56 F800
G1 X66.0 Y56.0 Z-3.89 F800
G1 X68.0 Y56.0 Z-3.12 F800
G1 X70.0 Y56.0 Z-2.27 F800
G1 X72.0 Y56.0 Z-1.41 F800
G1 X74.0 Y56.0 Z-0.60 F800
G1 X76.0 Y56.0 Z0.07 F800
G1 X78.0 Y56.0 Z0.53 F800
G1 X80.0 Y56.0 Z0.75 F800
G1 X82.0 Y56.0 Z0.76 F800
G1 X84.0 Y56.0 Z0.62 F800
G1 X86.0 Y56.0 Z0.40 F800
G1 X88.0 Y56.0 Z0.19 F800
G1 X90.0 Y56.0 Z0.01 F800
G1 X92.0 Y56.0 Z-0.10 F800
G1 X94.0 Y56.0 Z-0.15 F800
G1 X96.0 Y56.0 Z-0.16 F800
G1 X98.0 Y56.0 Z-0.15 F800
G1 X100.0 Y56.0 Z-0.12 F800
G0 Z10 ; Retract
G0 X100.0 Y60.0 Z10
G1 Z-0.11 F200
G1 X98.0 Y60.0 Z-0.13 F800
G1 X96.0 Y60.0 Z-0.14 F800
G1 X94.0 Y60.0 Z-0.12 F800
G1 X92.0 Y60.0 Z-0.06 F800
G1 X90.0 Y60.0 Z0.07 F800
G1 X88.0 Y60.0 Z0.26 F800
G1 X86.0 Y60.0 Z0.49 F800
G1 X84.0 Y60.0 Z0.72 F800
G1 X82.0 Y60.0 Z0.89 F800
G1 X80.0 Y60.0 Z0.90 F800
G1 X78.0 Y60.0 Z0.71 F800
G1 X76.0 Y60.0 Z0.29 F800
G1 X74.0 Y60.0 Z-0.34 F800
G1 X72.0 Y60.0 Z-1.11 F800
G1 X70.0 Y60.0 Z-1.93 F800
G1 X68.0 Y60.0 Z-2.74 F800
G1 X66.0 Y60.0 Z-3.47 F800
G1 X64.0 Y60.0 Z-4.09 F800
G1 X62.0 Y60.0 Z-4.62 F800
G1 X60.0 Y60.0 Z-5.05 F800
G1 X58.0 Y60.0 Z-5.39 F800
G1 X56.0 Y60.0 Z-5.66 F800
G1 X54.0 Y60.0 Z-5.85 F800
G1 X52.0 Y60.0 Z-5.96 F800
G1 X50.0 Y60.0 Z-6.00 F800
G1 X48.0 Y60.0 Z-5.96 F800
G1 X46.0 Y60.0 Z-5.86 F800
G1 X44.0 Y60.0 Z-5.68 F800
G1 X42.0 Y60.0 Z-5.45 F800
G1 X40.0 Y60.0 Z-5.16 F800
G1 X38.0 Y60.0 Z-4.82 F800
G1 X36.0 Y60.0 Z-4.46 F800
G1 X34.0 Y60.0 Z-4.07 F800
G1 X32.0 Y60.0 Z-3.67 F800
G1 X30.0 Y60.0 Z-3.28 F800
G1 X28.0 Y60.0 Z-2.88 F800
G1 X26.0 Y60.0 Z-2.51 F800
G1 X24.0 Y60.0 Z-2.16 F800
G1 X22.0 Y60.0 Z-1.83 F800
G1 X20.0 Y60.0 Z-1.54 F800
G1 X18.0 Y60.0 Z-1.27 F800
G1 X16.0 Y60.0 Z-1.04 F800
G1 X14.0 Y60.0 Z-0.84 F800
G1 X12.0 Y60.0 Z-0.67 F800
G1 X10.0 Y60.0 Z-0.52 F800
G1 X8.0 Y60.0 Z-0.40 F800
G1 X6.0 Y60.0 Z-0.31 F800
G1 X4.0 Y60.0 Z-0.23 F800
G1 X2.0 Y60.0 Z-0.17 F800
G1 X0.0 Y60.0 Z-0.13 F800
G0 Z10 ; Retract
G0 X0.0 Y64.0 Z10
G1 Z-0.11 F200
G1 X2.0 Y64.0 Z-0.15 F800
G1 X4.0 Y64.0 Z-0.20 F800
G1 X6.0 Y64.0 Z-0.26 F800
G1 X8.0 Y64.0 Z-0.34 F800
G1 X10.0 Y64.0 Z-0.44 F800
G1 X12.0 Y64.0 Z-0.56 F800
G1 X14.0 Y64.0 Z-0.71 F800
G1 X16.0 Y64.0 Z-0.88 F800
G1 X18.0 Y64.0 Z-1.07 F800
G1 X20.0 Y64.0 Z-1.30 F800
G1 X22.0 Y64.0 Z-1.55 F800
G1 X24.0 Y64.0 Z-1.83 F800
G1 X26.0 Y64.0 Z-2.14 F800
G1 X28.0 Y64.0 Z-2.46 F800
G1 X30.0 Y64.0 Z-2.80 F800
G1 X32.0 Y64.0 Z-3.15 F800
G1 X34.0 Y64.0 Z-3.49 F800
G1 X36.0 Y64.0 Z-3.83 F800
G1 X38.0 Y64.0 Z-4.15 F800
G1 X40.0 Y64.0 Z-4.44 F800
G1 X42.0 Y64.0 Z-4.69 F800
G1 X44.0 Y64.0 Z-4.90 F800
G1 X46.0 Y64.0 Z-5.05 F800
G1 X48.0 Y64.0 Z-5.14 F800
G1 X50.0 Y64.0 Z-5.17 F800
G1 X52.0 Y64.0 Z-5.14 F800
G1 X54.0 Y64.0 Z-5.04 F800
G1 X56.0 Y64.0 Z-4.88 F800
G1 X58.0 Y64.0 Z-4.64 F800
G1 X60.0 Y64.0 Z-4.34 F800
G1 X62.0 Y64.0 Z-3.96 F800
G1 X64.0 Y64.0 Z-3.48 F800
G1 X66.0 Y64.0 Z-2.91 F800
G1 X68.0 Y64.0 Z-2.24 F800
G1 X70.0 Y64.0 Z-1.49 F800
G1 X72.0 Y64.0 Z-0.72 F800
G1 X74.0 Y64.0 Z-0.00 F800
G1 X76.0 Y64.0 Z0.58 F800
G1 X78.0 Y64.0 Z0.96 F800
G1 X80.0 Y64.0 Z1.11 F800
G1 X82.0 Y64.0 Z1.06 F800
G1 X84.0 Y64.0 Z0.86 F800
G1 X86.0 Y64.0 Z0.60 F800
G1 X88.0 Y64.0 Z0.34 F800
G1 X90.0 Y64.0 Z0.14 F800
G1 X92.0 Y64.0 Z-0.00 F800
G1 X94.0 Y64.0 Z-0.08 F800
G1 X96.0 Y64.0 Z-0.11 F800
G1 X98.0 Y64.0 Z-0.11 F800
G1 X100.0 Y64.0 Z-0.09 F800
G0 Z10 ; Retract
G0 X100.0 Y68.0 Z10
G1 Z-0.07 F200
G1 X98.0 Y68.0 Z-0.08 F800
G1 X96.0 Y68.0 Z-0.07 F800
G1 X94.0 Y68.0 Z-0.03 F800
G1 X92.0 Y68.0 Z0.06 F800
G1 X90.0 Y68.0 Z0.22 F800
G1 X88.0 Y68.0 Z0.44 F800
G1 X86.0 Y68.0 Z0.73 F800
G1 X84.0 Y68.0 Z1.02 F800
G1 X82.0 Y68.0 Z1.25 F800
G1 X80.0 Y68.0 Z1.34 F800
G1 X78.0 Y68.0 Z1.23 F800
G1 X76.0 Y68.0 Z0.90 F800
G1 X74.0 Y68.0 Z0.38 F800
G1 X72.0 Y68.0 Z-0.28 F800
G1 X70.0 Y68.0 Z-0.99 F800
G1 X68.0 Y68.0 Z-1.67 F800
G1 X66.0 Y68.0 Z-2.28 F800
G1 X64.0 Y68.0 Z-2.80 F800
G1 X62.0 Y68.0 Z-3.22 F800
G1 X60.0 Y68.0 Z-3.55 F800
G1 X58.0 Y68.0 Z-3.80 F800
G1 X56.0 Y68.0 Z-4.00 F800
G1 X54.0 Y68.0 Z-4.14 F800
G1 X52.0 Y68.0 Z-4.22 F800
G1 X50.0 Y68.0 Z-4.25 F800
G1 X48.0 Y68.0 Z-4.22 F800
G1 X46.0 Y68.0 Z-4.14 F800
G1 X44.0 Y68.0 Z-4.02 F800
G1 X42.0 Y68.0 Z-3.85 F800
G1 X40.0 Y68.0 Z-3.64 F800
G1 X38.0 Y68.0 Z-3.40 F800
G1 X36.0 Y68.0 Z-3.14 F800
G1 X34.0 Y68.0 Z-2.86 F800
G1 X32.0 Y68.0 Z-2.58 F800
G1 X30.0 Y68.0 Z-2.29 F800
G1 X28.0 Y68.0 Z-2.01 F800
G1 X26.0 Y68.0 Z-1.75 F800
G1 X24.0 Y68.0 Z-1.50 F800
G1 X22.0 Y68.0 Z-1.27 F800
G1 X20.0 Y68.0 Z-1.06 F800
G1 X18.0 Y68.0 Z-0.88 F800
G1 X16.0 Y68.0 Z-0.72 F800
G1 X14.0 Y68.0 Z-0.58 F800
G1 X12.0 Y68.0 Z-0.46 F800
G1 X10.0 Y68.0 Z-0.36 F800
G1 X8.0 Y68.0 Z-0.28 F800
G1 X6.0 Y68.0 Z-0.21 F800
G1 X4.0 Y68.0 Z-0.16 F800
G1 X2.0 Y68.0 Z-0.12 F800
G1 X0.0 Y68.0 Z-0.09 F800
G0 Z10 ; Retract
G0 X0.0 Y72.0 Z10
G1 Z-0.07 F200
G1 X2.0 Y72.0 Z-0.09 F800
G1 X4.0 Y72.0 Z-0.13 F800
G1 X6.0 Y72.0 Z-0.17 F800
G1 X8.0 Y72.0 Z-0.22 F800
G1 X10.0 Y72.0 Z-0.28 F800
G1 X12.0 Y72.0 Z-0.36 F800
G1 X14.0 Y72.0 Z-0.45 F800
G1 X16.0 Y72.0 Z-0.56 F800
G1 X18.0 Y72.0 Z-0.68 F800
G1 X20.0 Y72.0 Z-0.83 F800
G1 X22.0 Y72.0 Z-0.99 F800
G1 X24.0 Y72.0 Z-1.17 F800
G1 X26.0 Y72.0 Z-1.36 F800
G1 X28.0 Y72.0 Z-1.57 F800
G1 X30.0 Y72.0 Z-1.79 F800
G1 X32.0 Y72.0 Z-2.01 F800
G1 X34.0 Y72.0 Z-2.23 F800
G1 X36.0 Y72.0 Z-2.45 F800
G1 X38.0 Y72.0 Z-2.66 F800
G1 X40.0 Y72.0 Z-2.84 F800
G1 X42.0 Y72.0 Z-3.00 F800
G1 X44.0 Y72.0 Z-3.14 F800
G1 X46.0 Y72.0 Z-3.24 F800
G1 X48.0 Y72.0 Z-3.30 F800
G1 X50.0 Y72.0 Z-3.32 F800
G1 X52.0 Y72.0 Z-3.29 F800
G1 X54.0 Y72.0 Z-3.23 F800
G1 X56.0 Y72.0 Z-3.12 F800
G1 X58.0 Y72.0 Z-2.96 F800
G1 X60.0 Y72.0 Z-2.75 F800
G1 X62.0 Y72.0 Z-2.47 F800
G1 X64.0 Y72.0 Z-2.11 F800
G1 X66.0 Y72.0 Z-1.66 F800
G1 X68.0 Y72.0 Z-1.11 F800
G1 X70.0 Y72.0 Z-0.49 F800
G1 X72.0 Y72.0 Z0.16 F800
G1 X74.0 Y72.0 Z0.76 F800
G1 X76.0 Y72.0 Z1.23 F800
G1 X78.0 Y72.0 Z1.51 F800
G1 X80.0 Y72.0 Z1.57 F800
G1 X82.0 Y72.0 Z1.44 F800
G1 X84.0 Y72.0 Z1.17 F800
G1 X86.0 Y72.0 Z0.85 F800
G1 X88.0 Y72.0 Z0.54 F800
G1 X90.0 Y72.0 Z0.29 F800
G1 X92.0 Y72.0 Z0.12 F800
G1 X94.0 Y72.0 Z0.02 F800
G1 X96.0 Y72.0 Z-0.03 F800
G1 X98.0 Y72.0 Z-0.05 F800
G1 X100.0 Y72.0 Z-0.05 F800
G0 Z10 ; Retract
G0 X100.0 Y76.0 Z10
G1 Z-0.03 F200
G1 X98.0 Y76.0 Z-0.03 F800
G1 X96.0 Y76.0 Z-0.00 F800
G1 X94.0 Y76.0 Z0.06 F800
G1 X92.0 Y76.0 Z0.18 F800
G1 X90.0 Y76.0 Z0.37 F800
G1 X88.0 Y76.0 Z0.64 F800
G1 X86.0 Y76.0 Z0.97 F800
G1 X84.0 Y76.0 Z1.32 F800
G1 X82.0 Y76.0 Z1.62 F800
G1 X80.0 Y76.0 Z1.79 F800
G1 X78.0 Y76.0 Z1.76 F800
G1 X76.0 Y76.0 Z1.53 F800
G1 X74.0 Y76.0 Z1.11 F800
G1 X72.0 Y76.0 Z0.56 F800
G1 X70.0 Y76.0 Z-0.03 F800
G1 X68.0 Y76.0 Z-0.59 F800
G1 X66.0 Y76.0 Z-1.09 F800
G1 X64.0 Y76.0 Z-1.48 F800
G1 X62.0 Y76.0 Z-1.79 F800
G1 X60.0 Y76.0 Z-2.02 F800
G1 X58.0 Y76.0 Z-2.19 F800
G1 X56.0 Y76.0 Z-2.32 F800
G1 X54.0 Y76.0 Z-2.40 F800
G1 X52.0 Y76.0 Z-2.45 F800
G1 X50.0 Y76.0 Z-2.47 F800
G1 X48.0 Y76.0 Z-2.45 F800
G1 X46.0 Y76.0 Z-2.41 F800
G1 X44.0 Y76.0 Z-2.33 F800
G1 X42.0 Y76.0 Z-2.23 F800
G1 X40.0 Y76.0 Z-2.11 F800
G1 X38.0 Y76.0 Z-1.97 F800
G1 X36.0 Y76.0 Z-1.82 F800
G1 X34.0 Y76.0 Z-1.66 F800
G1 X32.0 Y76.0 Z-1.50 F800
G1 X30.0 Y76.0 Z-1.33 F800
G1 X28.0 Y76.0 Z-1.17 F800
G1 X26.0 Y76.0 Z-1.01 F800
G1 X24.0 Y76.0 Z-0.87 F800
G1 X22.0 Y76.0 Z-0.74 F800
G1 X20.0 Y76.0 Z-0.62 F800
G1 X18.0 Y76.0 Z-0.51 F800
G1 X16.0 Y76.0 Z-0.41 F800
G1 X14.0 Y76.0 Z-0.33 F800
G1 X12.0 Y76.0 Z-0.27 F800
G1 X10.0 Y76.0 Z-0.21 F800
G1 X8.0 Y76.0 Z-0.16 F800
G1 X6.0 Y76.0 Z-0.12 F800
G1 X4.0 Y76.0 Z-0.09 F800
G1 X2.0 Y76.0 Z-0.07 F800
G1 X0.0 Y76.0 Z-0.05 F800
G0 Z10 ; Retract
G0 X0.0 Y80.0 Z10
G1 Z-0.04 F200
G1 X2.0 Y80.0 Z-0.05 F800
G1 X4.0 Y80.0 Z-0.07 F800
G1 X6.0 Y80.0 Z-0.09 F800
G1 X8.0 Y80.0 Z-0.11 F800
G1 X10.0 Y80.0 Z-0.15 F800
G1 X12.0 Y80.0 Z-0.19 F800
G1 X14.0 Y80.0 Z-0.24 F800
G1 X16.0 Y80.0 Z-0.29 F800
G1 X18.0 Y80.0 Z-0.36 F800
G1 X20.0 Y80.0 Z-0.44 F800
G1 X22.0 Y80.0 Z-0.52 F800
G1 X24.0 Y80.0 Z-0.61 F800
G1 X26.0 Y80.0 Z-0.72 F800
G1 X28.0 Y80.0 Z-0.83 F800
G1 X30.0 Y80.0 Z-0.94 F800
G1 X32.0 Y80.0 Z-1.06 F800
G1 X34.0 Y80.0 Z-1.18 F800
G1 X36.0 Y80.0 Z-1.29 F800
G1 X38.0 Y80.0 Z-1.40 F800
G1 X40.0 Y80.0 Z-1.50 F800
G1 X42.0 Y80.0 Z-1.58 F800
G1 X44.0 Y80.0 Z-1.65 F800
G1 X46.0 Y80.0 Z-1.70 F800
G1 X48.0 Y80.0 Z-1.73 F800
G1 X50.0 Y80.0 Z-1.74 F800
G1 X52.0 Y80.0 Z-1.73 F800
G1 X54.0 Y80.0 Z-1.70 F800
G1 X56.0 Y80.0 Z-1.63 F800
G1 X58.0 Y80.0 Z-1.54 F800
G1 X60.0 Y80.0 Z-1.40 F800
G1 X62.0 Y80.0 Z-1.21 F800
G1 X64.0 Y80.0 Z-0.95 F800
G1 X66.0 Y80.0 Z-0.60 F800
G1 X68.0 Y80.0 Z-0.16 F800
G1 X70.0 Y80.0 Z0.36 F800
G1 X72.0 Y80.0 Z0.90 F800
G1 X74.0 Y80.0 Z1.41 F800
G1 X76.0 Y80.0 Z1.79 F800
G1 X78.0 Y80.0 Z1.98 F800
G1 X80.0 Y80.0 Z1.96 F800
G1 X82.0 Y80.0 Z1.76 F800
G1 X84.0 Y80.0 Z1.44 F800
G1 X86.0 Y80.0 Z1.06 F800
G1 X88.0 Y80.0 Z0.71 F800
G1 X90.0 Y80.0 Z0.43 F800
G1 X92.0 Y80.0 Z0.22 F800
G1 X94.0 Y80.0 Z0.10 F800
G1 X96.0 Y80.0 Z0.03 F800
G1 X98.0 Y80.0 Z-0.01 F800
G1 X100.0 Y80.0 Z-0.02 F800
G0 Z10 ; Retract
G0 X100.0 Y84.0 Z10
G1 Z-0.01 F200
G1 X98.0 Y84.0 Z0.01 F800
G1 X96.0 Y84.0 Z0.05 F800
G1 X94.0 Y84.0 Z0.12 F800
G1 X92.0 Y84.0 Z0.26 F800
G1 X90.0 Y84.0 Z0.48 F800
G1 X88.0 Y84.0 Z0.77 F800
G1 X86.0 Y84.0 Z1.14 F800
G1 X84.0 Y84.0 Z1.53 F800
G1 X82.0 Y84.0 Z1.88 F800
G1 X80.0 Y84.0 Z2.11 F800
G1 X78.0 Y84.0 Z2.15 F800
G1 X76.0 Y84.0 Z1.99 F800
G1 X74.0 Y84.0 Z1.64 F800
G1 X72.0 Y84.0 Z1.17 F800
G1 X70.0 Y84.0 Z0.67 F800
G1 X68.0 Y84.0 Z0.19 F800
G1 X66.0 Y84.0 Z-0.22 F800
G1 X64.0 Y84.0 Z-0.53 F800
G1 X62.0 Y84.0 Z-0.76 F800
G1 X60.0 Y84.0 Z-0.92 F800
G1 X58.0 Y84.0 Z-1.02 F800
G1 X56.0 Y84.0 Z-1.09 F800
G1 X54.0 Y84.0 Z-1.14 F800
G1 X52.0 Y84.0 Z-1.17 F800
G1 X50.0 Y84.0 Z-1.17 F800
G1 X48.0 Y84.0 Z-1.17 F800
G1 X46.0 Y84.0 Z-1.15 F800
G1 X44.0 Y84.0 Z-1.11 F800
G1 X42.0 Y84.0 Z-1.07 F800
G1 X40.0 Y84.0 Z-1.01 F800
G1 X38.0 Y84.0 Z-0.94 F800
G1 X36.0 Y84.0 Z-0.87 F800
G1 X34.0 Y84.0 Z-0.79 F800
G1 X32.0 Y84.0 Z-0.71 F800
G1 X30.0 Y84.0 Z-0.63 F800
G1 X28.0 Y84.0 Z-0.56 F800
G1 X26.0 Y84.0 Z-0.48 F800
G1 X24.0 Y84.0 Z-0.41 F800
G1 X22.0 Y84.0 Z-0.35 F800
G1 X20.0 Y84.0 Z-0.29 F800
G1 X18.0 Y84.0 Z-0.24 F800
G1 X16.0 Y84.0 Z-0.20 F800
G1 X14.0 Y84.0 Z-0.16 F800
G1 X12.0 Y84.0 Z-0.13 F800
G1 X10.0 Y84.0 Z-0.10 F800
G1 X8.0 Y84.0 Z-0.08 F800
G1 X6.0 Y84.0 Z-0.06 F800
G1 X4.0 Y84.0 Z-0.04 F800
G1 X2.0 Y84.0 Z-0.03 F800
G1 X0.0 Y84.0 Z-0.02 F800
G0 Z10 ; Retract
G0 X0.0 Y88.0 Z10
G1 Z-0.02 F200
G1 X2.0 Y88.0 Z-0.02 F800
G1 X4.0 Y88.0 Z-0.03 F800
G1 X6.0 Y88.0 Z-0.04 F800
G1 X8.0 Y88.0 Z-0.05 F800
G1 X10.0 Y88.0 Z-0.06 F800
G1 X12.0 Y88.0 Z-0.08 F800
G1 X14.0 Y88.0 Z-0.10 F800
G1 X16.0 Y88.0 Z-0.13 F800
G1 X18.0 Y88.0 Z-0.16 F800
G1 X20.0 Y88.0 Z-0.19 F800
G1 X22.0 Y88.0 Z-0.22 F800
G1 X24.0 Y88.0 Z-0.27 F800
G1 X26.0 Y88.0 Z-0.31 F800
G1 X28.0 Y88.0 Z-0.36 F800
G1 X30.0 Y88.0 Z-0.41 F800
G1 X32.0 Y88.0 Z-0.46 F800
G1 X34.0 Y88.0 Z-0.51 F800
G1 X36.0 Y88.0 Z-0.56 F800
G1 X38.0 Y88.0 Z-0.60 F800
G1 X40.0 Y88.0 Z-0.65 F800
G1 X42.0 Y88.0 Z-0.68 F800
G1 X44.0 Y88.0 Z-0.71 F800
G1 X46.0 Y88.0 Z-0.74 F800
G1 X48.0 Y88.0 Z-0.75 F800
G1 X50.0 Y88.0 Z-0.75 F800
G1 X52.0 Y88.0 Z-0.75 F800
G1 X54.0 Y88.0 Z-0.73 F800
G1 X56.0 Y88.0 Z-0.70 F800
G1 X58.0 Y88.0 Z-0.64 F800
G1 X60.0 Y88.0 Z-0.55 F800
G1 X62.0 Y88.0 Z-0.42 F800
G1 X64.0 Y88.0 Z-0.22 F800
G1 X66.0 Y88.0 Z0.07 F800
G1 X68.0 Y88.0 Z0.44 F800
G1 X70.0 Y88.0 Z0.89 F800
G1 X72.0 Y88.0 Z1.37 F800
G1 X74.0 Y88.0 Z1.81 F800
G1 X76.0 Y88.0 Z2.13 F800
G1 X78.0 Y88.0 Z2.28 F800
G1 X80.0 Y88.0 Z2.21 F800
G1 X82.0 Y88.0 Z1.97 F800
G1 X84.0 Y88.0 Z1.60 F800
G1 X86.0 Y88.0 Z1.20 F800
G1 X88.0 Y88.0 Z0.82 F800
G1 X90.0 Y88.0 Z0.51 F800
G1 X92.0 Y88.0 Z0.29 F800
G1 X94.0 Y88.0 Z0.15 F800
G1 X96.0 Y88.0 Z0.06 F800
G1 X98.0 Y88.0 Z0.02 F800
G1 X100.0 Y88.0 Z0.00 F800
G0 Z10 ; Retract
G0 X100.0 Y92.0 Z10
G1 Z0.01 F200
G1 X98.0 Y92.0 Z0.03 F800
G1 X96.0 Y92.0 Z0.07 F800
G1 X94.0 Y92.0 Z0.16 F800
G1 X92.0 Y92.0 Z0.31 F800
G1 X90.0 Y92.0 Z0.54 F800
G1 X88.0 Y92.0 Z0.85 F800
G1 X86.0 Y92.0 Z1.24 F800
G1 X84.0 Y92.0 Z1.65 F800
G1 X82.0 Y92.0 Z2.03 F800
G1 X80.0 Y92.0 Z2.29 F800
G1 X78.0 Y92.0 Z2.36 F800
G1 X76.0 Y92.0 Z2.24 F800
G1 X74.0 Y92.0 Z1.93 F800
G1 X72.0 Y92.0 Z1.51 F800
G1 X70.0 Y92.0 Z1.05 F800
G1 X68.0 Y92.0 Z0.62 F800
G1 X66.0 Y92.0 Z0.27 F800
G1 X64.0 Y92.0 Z-0.00 F800
G1 X62.0 Y92.0 Z-0.18 F800
G1 X60.0 Y92.0 Z-0.30 F800
G1 X58.0 Y92.0 Z-0.37 F800
G1 X56.0 Y92.0 Z-0.42 F800
G1 X54.0 Y92.0 Z-0.44 F800
G1 X52.0 Y92.0 Z-0.45 F800
G1 X50.0 Y92.0 Z-0.46 F800
G1 X48.0 Y92.0 Z-0.46 F800
G1 X46.0 Y92.0 Z-0.45 F800
G1 X44.0 Y92.0 Z-0.44 F800
G1 X42.0 Y92.0 Z-0.42 F800
G1 X40.0 Y92.0 Z-0.39 F800
G1 X38.0 Y92.0 Z-0.37 F800
G1 X36.0 Y92.0 Z-0.34 F800
G1 X34.0 Y92.0 Z-0.31 F800
G1 X32.0 Y92.0 Z-0.28 F800
G1 X30.0 Y92.0 Z-0.25 F800
G1 X28.0 Y92.0 Z-0.22 F800
G1 X26.0 Y92.0 Z-0.19 F800
G1 X24.0 Y92.0 Z-0.16 F800
G1 X22.0 Y92.0 Z-0.14 F800
G1 X20.0 Y92.0 Z-0.11 F800
G1 X18.0 Y92.0 Z-0.09 F800
G1 X16.0 Y92.0 Z-0.08 F800
G1 X14.0 Y92.0 Z-0.06 F800
G1 X12.0 Y92.0 Z-0.05 F800
G1 X10.0 Y92.0 Z-0.04 F800
G1 X8.0 Y92.0 Z-0.03 F800
G1 X6.0 Y92.0 Z-0.02 F800
G1 X4.0 Y92.0 Z-0.02 F800
G1 X2.0 Y92.0 Z-0.01 F800
G1 X0.0 Y92.0 Z-0.01 F800
G0 Z10 ; Retract
G0 X0.0 Y96.0 Z10
G1 Z-0.01 F200
G1 X2.0 Y96.0 Z-0.01 F800
G1 X4.0 Y96.0 Z-0.01 F800
G1 X6.0 Y96.0 Z-0.01 F800
G1 X8.0 Y96.0 Z-0.02 F800
G1 X10.0 Y96.0 Z-0.02 F800
G1 X12.0 Y96.0 Z-0.03 F800
G1 X14.0 Y96.0 Z-0.04 F800
G1 X16.0 Y96.0 Z-0.04 F800
G1 X18.0 Y96.0 Z-0.06 F800
G1 X20.0 Y96.0 Z-0.07 F800
G1 X22.0 Y96.0 Z-0.08 F800
G1 X24.0 Y96.0 Z-0.09 F800
G1 X26.0 Y96.0 Z-0.11 F800
G1 X28.0 Y96.0 Z-0.13 F800
G1 X30.0 Y96.0 Z-0.14 F800
G1 X32.0 Y96.0 Z-0.16 F800
G1 X34.0 Y96.0 Z-0.18 F800
G1 X36.0 Y96.0 Z-0.20 F800
G1 X38.0 Y96.0 Z-0.21 F800
G1 X40.0 Y96.0 Z-0.23 F800
G1 X42.0 Y96.0 Z-0.24 F800
G1 X44.0 Y96.0 Z-0.25 F800
G1 X46.0 Y96.0 Z-0.26 F800
G1 X48.0 Y96.0 Z-0.27 F800
G1 X50.0 Y96.0 Z-0.27 F800
G1 X52.0 Y96.0 Z-0.26 F800
G1 X54.0 Y96.0 Z-0.25 F800
G1 X56.0 Y96.0 Z-0.23 F800
G1 X58.0 Y96.0 Z-0.20 F800
G1 X60.0 Y96.0 Z-0.14 F800
G1 X62.0 Y96.0 Z-0.03 F800
G1 X64.0 Y96.0 Z0.14 F800
G1 X66.0 Y96.0 Z0.40 F800
G1 X68.0 Y96.0 Z0.74 F800
G1 X70.0 Y96.0 Z1.16 F800
G1 X72.0 Y96.0 Z1.60 F800
G1 X74.0 Y96.0 Z2.01 F800
G1 X76.0 Y96.0 Z2.31 F800
G1 X78.0 Y96.0 Z2.42 F800
G1 X80.0 Y96.0 Z2.33 F800
G1 X82.0 Y96.0 Z2.07 F800
G1 X84.0 Y96.0 Z1.69 F800
G1 X86.0 Y96.0 Z1.26 F800
G1 X88.0 Y96.0 Z0.87 F800
G1 X90.0 Y96.0 Z0.55 F800
G1 X92.0 Y96.0 Z0.32 F800
G1 X94.0 Y96.0 Z0.17 F800
G1 X96.0 Y96.0 Z0.08 F800
G1 X98.0 Y96.0 Z0.03 F800
G1 X100.0 Y96.0 Z0.01 F800
G0 Z10 ; Retract
G0 X100.0 Y100.0 Z10
G1 Z0.01 F200
G1 X98.0 Y100.0 Z0.04 F800
G1 X96.0 Y100.0 Z0.09 F800
G1 X94.0 Y100.0 Z0.18 F800
G1 X92.0 Y100.0 Z0.33 F800
G1 X90.0 Y100.0 Z0.56 F800
G1 X88.0 Y100.0 Z0.89 F800
G1 X86.0 Y100.0 Z1.28 F800
G1 X84.0 Y100.0 Z1.71 F800
G1 X82.0 Y100.0 Z2.09 F800
G1 X80.0 Y100.0 Z2.36 F800
G1 X78.0 Y100.0 Z2.46 F800
G1 X76.0 Y100.0 Z2.35 F800
G1 X74.0 Y100.0 Z2.06 F800
G1 X72.0 Y100.0 Z1.66 F800
G1 X70.0 Y100.0 Z1.22 F800
G1 X68.0 Y100.0 Z0.81 F800
G1 X66.0 Y100.0 Z0.48 F800
G1 X64.0 Y100.0 Z0.23 F800
G1 X62.0 Y100.0 Z0.07 F800
G1 X60.0 Y100.0 Z-0.03 F800
G1 X58.0 Y100.0 Z-0.09 F800
G1 X56.0 Y100.0 Z-0.12 F800
G1 X54.0 Y100.0 Z-0.14 F800
G1 X52.0 Y100.0 Z-0.14 F800
G1 X50.0 Y100.0 Z-0.15 F800
G1 X48.0 Y100.0 Z-0.15 F800
G1 X46.0 Y100.0 Z-0.14 F800
G1 X44.0 Y100.0 Z-0.14 F800
G1 X42.0 Y100.0 Z-0.13 F800
G1 X40.0 Y100.0 Z-0.13 F800
G1 X38.0 Y100.0 Z-0.12 F800
G1 X36.0 Y100.0 Z-0.11 F800
G1 X34.0 Y100.0 Z-0.10 F800
G1 X32.0 Y100.0 Z-0.09 F800
G1 X30.0 Y100.0 Z-0.08 F800
G1 X28.0 Y100.0 Z-0.07 F800
G1 X26.0 Y100.0 Z-0.06 F800
G1 X24.0 Y100.0 Z-0.05 F800
G1 X22.0 Y100.0 Z-0.04 F800
G1 X20.0 Y100.0 Z-0.04 F800
G1 X18.0 Y100.0 Z-0.03 F800
G1 X16.0 Y100.0 Z-0.02 F800
G1 X14.0 Y100.0 Z-0.02 F800
G1 X12.0 Y100.0 Z-0.02 F800
G1 X10.0 Y100.0 Z-0.01 F800
G1 X8.0 Y100.0 Z-0.01 F800
G1 X6.0 Y100.0 Z-0.01 F800
G1 X4.0 Y100.0 Z-0.01 F800
G1 X2.0 Y100.0 Z-0.00 F800
G1 X0.0 Y100.0 Z-0.00 F800
G0 Z10 ; Retract

G0 Z10
M5 ; Spindle off
M30 ; End